0 DELTA 1 DEB
1 21288U 75052Z   13282.52233108  .00000021  00000-0  20503-3 0  3316
2 21288 099.6286 110.9584 0355399 215.4878 168.0333 12.75325070 44521
0 DELTA 1 DEB
1 21288U 75052Z   13287.17257264  .00000005  00000-0  14543-3 0  3332
2 21288 099.6281 114.9053 0355383 205.3260 278.0954 12.75325564 45112
0 DELTA 1 DEB
1 21288U 75052Z   13289.50528679 -.00000012  00000-0  84419-4 0  3342
2 21288 099.6281 116.8850 0355467 200.2271 187.9937 12.75326216 45414
0 DELTA 1 DEB
1 21288U 75052Z   13292.11401701  .00000004  00000-0  14154-3 0  3358
2 21288 099.6282 119.0990 0355393 194.5228 285.1361 12.75326196 45745
0 DELTA 1 DEB
1 21288U 75052Z   13294.52272310  .00000018  00000-0  19062-3 0  3366
2 21288 099.6282 121.1429 0355517 189.2600 183.9306 12.75326228 46054
